[{"OBJECT_NAME":"HULIANWANG DIGUI-129","OBJECT_ID":"2025-311B","EPOCH":"2026-03-02T10:58:23.728512","MEAN_MOTION":13.36653522,"ECCENTRICITY":9.366e-5,"INCLINATION":50.0076,"RA_OF_ASC_NODE":138.5142,"ARG_OF_PERICENTER":290.887,"MEAN_ANOMALY":69.1905,"EPHEMERIS_TYPE":0,"CLASSIFICATION_TYPE":"U","NORAD_CAT_ID":67237,"ELEMENT_SET_NO":999,"REV_AT_EPOCH":914,"BSTAR":0.00010755102,"MEAN_MOTION_DOT":-7.1e-7,"MEAN_MOTION_DDOT":0},{"OBJECT_NAME":"HULIANWANG DIGUI-130","OBJECT_ID":"2025-311C","EPOCH":"2026-03-02T17:26:39.437376","MEAN_MOTION":13.35083039,"ECCENTRICITY":0.00010251,"INCLINATION":50.0046,"RA_OF_ASC_NODE":137.9149,"ARG_OF_PERICENTER":276.3075,"MEAN_ANOMALY":83.7683,"EPHEMERIS_TYPE":0,"CLASSIFICATION_TYPE":"U","NORAD_CAT_ID":67238,"ELEMENT_SET_NO":999,"REV_AT_EPOCH":917,"BSTAR":0.00012256711,"MEAN_MOTION_DOT":-6.4e-7,"MEAN_MOTION_DDOT":0},{"OBJECT_NAME":"HULIANWANG DIGUI-131","OBJECT_ID":"2025-311D","EPOCH":"2026-03-03T02:36:59.429952","MEAN_MOTION":13.34957059,"ECCENTRICITY":4.64e-5,"INCLINATION":50.0041,"RA_OF_ASC_NODE":136.5978,"ARG_OF_PERICENTER":272.2712,"MEAN_ANOMALY":87.8109,"EPHEMERIS_TYPE":0,"CLASSIFICATION_TYPE":"U","NORAD_CAT_ID":67239,"ELEMENT_SET_NO":999,"REV_AT_EPOCH":922,"BSTAR":0.00012648,"MEAN_MOTION_DOT":-6.2e-7,"MEAN_MOTION_DDOT":0},{"OBJECT_NAME":"HULIANWANG DIGUI-132","OBJECT_ID":"2025-311E","EPOCH":"2026-03-03T03:51:07.161984","MEAN_MOTION":13.35445825,"ECCENTRICITY":3.64e-5,"INCLINATION":50.0049,"RA_OF_ASC_NODE":136.214,"ARG_OF_PERICENTER":291.6621,"MEAN_ANOMALY":68.4215,"EPHEMERIS_TYPE":0,"CLASSIFICATION_TYPE":"U","NORAD_CAT_ID":67240,"ELEMENT_SET_NO":999,"REV_AT_EPOCH":923,"BSTAR":0.0001188,"MEAN_MOTION_DOT":-6.6e-7,"MEAN_MOTION_DDOT":0},{"OBJECT_NAME":"HULIANWANG DIGUI-133","OBJECT_ID":"2025-311F","EPOCH":"2026-03-02T18:30:39.104352","MEAN_MOTION":13.35862255,"ECCENTRICITY":5.58e-5,"INCLINATION":50.0097,"RA_OF_ASC_NODE":137.5221,"ARG_OF_PERICENTER":259.1437,"MEAN_ANOMALY":100.9375,"EPHEMERIS_TYPE":0,"CLASSIFICATION_TYPE":"U","NORAD_CAT_ID":67241,"ELEMENT_SET_NO":999,"REV_AT_EPOCH":918,"BSTAR":0.00012494,"MEAN_MOTION_DOT":-6.2e-7,"MEAN_MOTION_DDOT":0},{"OBJECT_NAME":"HULIANWANG DIGUI-134","OBJECT_ID":"2025-311G","EPOCH":"2026-03-02T18:41:45.669984","MEAN_MOTION":13.35702804,"ECCENTRICITY":3.69e-5,"INCLINATION":50.002,"RA_OF_ASC_NODE":137.5174,"ARG_OF_PERICENTER":87.0028,"MEAN_ANOMALY":273.0889,"EPHEMERIS_TYPE":0,"CLASSIFICATION_TYPE":"U","NORAD_CAT_ID":67242,"ELEMENT_SET_NO":999,"REV_AT_EPOCH":918,"BSTAR":0.00012035,"MEAN_MOTION_DOT":-6.5e-7,"MEAN_MOTION_DDOT":0},{"OBJECT_NAME":"HULIANWANG DIGUI-135","OBJECT_ID":"2025-311H","EPOCH":"2026-03-03T04:02:19.476672","MEAN_MOTION":13.35301438,"ECCENTRICITY":8.22e-5,"INCLINATION":50.0012,"RA_OF_ASC_NODE":136.2268,"ARG_OF_PERICENTER":249.9862,"MEAN_ANOMALY":110.0924,"EPHEMERIS_TYPE":0,"CLASSIFICATION_TYPE":"U","NORAD_CAT_ID":67243,"ELEMENT_SET_NO":999,"REV_AT_EPOCH":923,"BSTAR":0.00012897,"MEAN_MOTION_DOT":-6.1e-7,"MEAN_MOTION_DDOT":0},{"OBJECT_NAME":"HULIANWANG DIGUI-136","OBJECT_ID":"2025-311J","EPOCH":"2026-03-02T18:19:44.986368","MEAN_MOTION":13.36030172,"ECCENTRICITY":6.36e-5,"INCLINATION":50.0084,"RA_OF_ASC_NODE":137.4741,"ARG_OF_PERICENTER":287.23,"MEAN_ANOMALY":72.8505,"EPHEMERIS_TYPE":0,"CLASSIFICATION_TYPE":"U","NORAD_CAT_ID":67244,"ELEMENT_SET_NO":999,"REV_AT_EPOCH":918,"BSTAR":0.00011564,"MEAN_MOTION_DOT":-6.7e-7,"MEAN_MOTION_DDOT":0},{"OBJECT_NAME":"HULIANWANG DIGUI-137","OBJECT_ID":"2026-007A","EPOCH":"2026-03-02T23:56:54.277152","MEAN_MOTION":13.44972275,"ECCENTRICITY":5.42e-5,"INCLINATION":50.009,"RA_OF_ASC_NODE":107.2612,"ARG_OF_PERICENTER":151.3375,"MEAN_ANOMALY":208.7534,"EPHEMERIS_TYPE":0,"CLASSIFICATION_TYPE":"U","NORAD_CAT_ID":67435,"ELEMENT_SET_NO":999,"REV_AT_EPOCH":665,"BSTAR":0.00016968,"MEAN_MOTION_DOT":-2.9e-7,"MEAN_MOTION_DDOT":0},{"OBJECT_NAME":"HULIANWANG DIGUI-138","OBJECT_ID":"2026-007B","EPOCH":"2026-03-02T22:29:16.715328","MEAN_MOTION":13.44235057,"ECCENTRICITY":9.01e-5,"INCLINATION":50.0059,"RA_OF_ASC_NODE":107.5964,"ARG_OF_PERICENTER":164.5527,"MEAN_ANOMALY":195.538,"EPHEMERIS_TYPE":0,"CLASSIFICATION_TYPE":"U","NORAD_CAT_ID":67436,"ELEMENT_SET_NO":999,"REV_AT_EPOCH":664,"BSTAR":0.00016457,"MEAN_MOTION_DOT":-3.3e-7,"MEAN_MOTION_DDOT":0},{"OBJECT_NAME":"HULIANWANG DIGUI-139","OBJECT_ID":"2026-007C","EPOCH":"2026-03-02T15:11:37.805280","MEAN_MOTION":13.44643664,"ECCENTRICITY":3.88e-5,"INCLINATION":50.003,"RA_OF_ASC_NODE":108.6361,"ARG_OF_PERICENTER":119.4005,"MEAN_ANOMALY":240.6913,"EPHEMERIS_TYPE":0,"CLASSIFICATION_TYPE":"U","NORAD_CAT_ID":67437,"ELEMENT_SET_NO":999,"REV_AT_EPOCH":660,"BSTAR":0.00019178,"MEAN_MOTION_DOT":-1.7e-7,"MEAN_MOTION_DDOT":0},{"OBJECT_NAME":"HULIANWANG DIGUI-140","OBJECT_ID":"2026-007D","EPOCH":"2026-03-03T04:00:36.842976","MEAN_MOTION":13.44092178,"ECCENTRICITY":1.4e-5,"INCLINATION":50.0053,"RA_OF_ASC_NODE":106.8095,"ARG_OF_PERICENTER":150.8787,"MEAN_ANOMALY":209.21,"EPHEMERIS_TYPE":0,"CLASSIFICATION_TYPE":"U","NORAD_CAT_ID":67438,"ELEMENT_SET_NO":999,"REV_AT_EPOCH":667,"BSTAR":0.00018677,"MEAN_MOTION_DOT":-2.0e-7,"MEAN_MOTION_DDOT":0},{"OBJECT_NAME":"HULIANWANG DIGUI-141","OBJECT_ID":"2026-007E","EPOCH":"2026-03-02T23:47:39.739488","MEAN_MOTION":13.45003901,"ECCENTRICITY":3.34e-5,"INCLINATION":50.0067,"RA_OF_ASC_NODE":107.2173,"ARG_OF_PERICENTER":337.2092,"MEAN_ANOMALY":22.8772,"EPHEMERIS_TYPE":0,"CLASSIFICATION_TYPE":"U","NORAD_CAT_ID":67439,"ELEMENT_SET_NO":999,"REV_AT_EPOCH":665,"BSTAR":0.00017024,"MEAN_MOTION_DOT":-2.9e-7,"MEAN_MOTION_DDOT":0},{"OBJECT_NAME":"HULIANWANG DIGUI-142","OBJECT_ID":"2026-007F","EPOCH":"2026-03-03T03:12:20.628576","MEAN_MOTION":13.45212159,"ECCENTRICITY":3.82e-5,"INCLINATION":50.0144,"RA_OF_ASC_NODE":106.6629,"ARG_OF_PERICENTER":203.8578,"MEAN_ANOMALY":156.2283,"EPHEMERIS_TYPE":0,"CLASSIFICATION_TYPE":"U","NORAD_CAT_ID":67440,"ELEMENT_SET_NO":999,"REV_AT_EPOCH":667,"BSTAR":3.4503e-5,"MEAN_MOTION_DOT":-1.09e-6,"MEAN_MOTION_DDOT":0},{"OBJECT_NAME":"HULIANWANG DIGUI-143","OBJECT_ID":"2026-007G","EPOCH":"2026-03-02T16:21:09.154080","MEAN_MOTION":13.45311137,"ECCENTRICITY":0.0002061,"INCLINATION":50.0129,"RA_OF_ASC_NODE":108.2521,"ARG_OF_PERICENTER":211.3896,"MEAN_ANOMALY":148.686,"EPHEMERIS_TYPE":0,"CLASSIFICATION_TYPE":"U","NORAD_CAT_ID":67441,"ELEMENT_SET_NO":999,"REV_AT_EPOCH":661,"BSTAR":0.00016393,"MEAN_MOTION_DOT":-3.2e-7,"MEAN_MOTION_DDOT":0},{"OBJECT_NAME":"HULIANWANG DIGUI-144","OBJECT_ID":"2026-007H","EPOCH":"2026-03-03T04:40:22.617408","MEAN_MOTION":13.45613432,"ECCENTRICITY":4.96e-5,"INCLINATION":50.0082,"RA_OF_ASC_NODE":106.313,"ARG_OF_PERICENTER":31.8673,"MEAN_ANOMALY":328.2236,"EPHEMERIS_TYPE":0,"CLASSIFICATION_TYPE":"U","NORAD_CAT_ID":67442,"ELEMENT_SET_NO":999,"REV_AT_EPOCH":668,"BSTAR":0.00015076,"MEAN_MOTION_DOT":-4.0e-7,"MEAN_MOTION_DDOT":0}]
